[{"OBJECT_NAME":"NUSAT-44 (MARIA MITCHELL)","OBJECT_ID":"2024-043AA","EPOCH":"2026-03-09T22:12:18.524160","MEAN_MOTION":15.29764305,"ECCENTRICITY":0.0007331,"INCLINATION":97.5299,"RA_OF_ASC_NODE":207.7691,"ARG_OF_PERICENTER":214.9017,"MEAN_ANOMALY":145.1743,"EPHEMERIS_TYPE":0,"CLASSIFICATION_TYPE":"U","NORAD_CAT_ID":59122,"ELEMENT_SET_NO":999,"REV_AT_EPOCH":11209,"BSTAR":0.00061063193,"MEAN_MOTION_DOT":0.00017562,"MEAN_MOTION_DDOT":0},{"OBJECT_NAME":"STARLINK-35651","OBJECT_ID":"2025-257G","EPOCH":"2026-03-09T16:02:32.878176","MEAN_MOTION":15.30196171,"ECCENTRICITY":6.943e-5,"INCLINATION":53.16,"RA_OF_ASC_NODE":216.8789,"ARG_OF_PERICENTER":123.2496,"MEAN_ANOMALY":236.8572,"EPHEMERIS_TYPE":0,"CLASSIFICATION_TYPE":"U","NORAD_CAT_ID":66386,"ELEMENT_SET_NO":999,"REV_AT_EPOCH":1973,"BSTAR":0.00063435779,"MEAN_MOTION_DOT":0.00018473,"MEAN_MOTION_DDOT":0}]
